CCSDS_OMM_VERS = 2.0
CREATION_DATE  = 
ORIGINATOR     = 

OBJECT_NAME    = COSMOS 2058
OBJECT_ID      = 1990-010A
CENTER_NAME    = EARTH
REF_FRAME      = TEME
TIME_SYSTEM    = UTC
MEAN_ELEMENT_THEORY = SGP/SGP4

EPOCH          = 2026-03-16T23:55:55.861248
MEAN_MOTION    = 15.11388647
ECCENTRICITY   = .0008329
INCLINATION    = 82.4667
RA_OF_ASC_NODE = 40.2265
ARG_OF_PERICENTER = 319.4031
MEAN_ANOMALY   = 40.6577

EPHEMERIS_TYPE = 0
CLASSIFICATION_TYPE = U
NORAD_CAT_ID   = 20465
ELEMENT_SET_NO = 999
REV_AT_EPOCH   = 94334
BSTAR          = .20502558E-3
MEAN_MOTION_DOT = .349E-4
MEAN_MOTION_DDOT = 0

CCSDS_OMM_VERS = 2.0
CREATION_DATE  = 
ORIGINATOR     = 

OBJECT_NAME    = SL-14 R/B
OBJECT_ID      = 1990-010B
CENTER_NAME    = EARTH
REF_FRAME      = TEME
TIME_SYSTEM    = UTC
MEAN_ELEMENT_THEORY = SGP/SGP4

EPOCH          = 2026-03-17T00:55:31.558944
MEAN_MOTION    = 14.83575507
ECCENTRICITY   = .00183249
INCLINATION    = 82.4987
RA_OF_ASC_NODE = 260.4835
ARG_OF_PERICENTER = 276.2285
MEAN_ANOMALY   = 83.6842

EPHEMERIS_TYPE = 0
CLASSIFICATION_TYPE = U
NORAD_CAT_ID   = 20466
ELEMENT_SET_NO = 999
REV_AT_EPOCH   = 92957
BSTAR          = .47292094E-4
MEAN_MOTION_DOT = .414E-5
MEAN_MOTION_DDOT = 0

CCSDS_OMM_VERS = 2.0
CREATION_DATE  = 
ORIGINATOR     = 

OBJECT_NAME    = SL-14 R/B
OBJECT_ID      = 1990-018B
CENTER_NAME    = EARTH
REF_FRAME      = TEME
TIME_SYSTEM    = UTC
MEAN_ELEMENT_THEORY = SGP/SGP4

EPOCH          = 2026-03-17T03:08:35.942784
MEAN_MOTION    = 14.82152975
ECCENTRICITY   = .00175492
INCLINATION    = 82.5216
RA_OF_ASC_NODE = 216.1345
ARG_OF_PERICENTER = 69.5819
MEAN_ANOMALY   = 290.7278

EPHEMERIS_TYPE = 0
CLASSIFICATION_TYPE = U
NORAD_CAT_ID   = 20511
ELEMENT_SET_NO = 999
REV_AT_EPOCH   = 92368
BSTAR          = .53336771E-4
MEAN_MOTION_DOT = .449E-5
MEAN_MOTION_DDOT = 0

CCSDS_OMM_VERS = 2.0
CREATION_DATE  = 
ORIGINATOR     = 

OBJECT_NAME    = HST
OBJECT_ID      = 1990-037B
CENTER_NAME    = EARTH
REF_FRAME      = TEME
TIME_SYSTEM    = UTC
MEAN_ELEMENT_THEORY = SGP/SGP4

EPOCH          = 2026-03-17T01:18:46.178496
MEAN_MOTION    = 15.29603902
ECCENTRICITY   = .00016841
INCLINATION    = 28.4724
RA_OF_ASC_NODE = 349.7537
ARG_OF_PERICENTER = 201.5837
MEAN_ANOMALY   = 158.4688

EPHEMERIS_TYPE = 0
CLASSIFICATION_TYPE = U
NORAD_CAT_ID   = 20580
ELEMENT_SET_NO = 999
REV_AT_EPOCH   = 77444
BSTAR          = .21207405E-3
MEAN_MOTION_DOT = .6491E-4
MEAN_MOTION_DDOT = 0

CCSDS_OMM_VERS = 2.0
CREATION_DATE  = 
ORIGINATOR     = 

OBJECT_NAME    = SL-16 R/B
OBJECT_ID      = 1990-046B
CENTER_NAME    = EARTH
REF_FRAME      = TEME
TIME_SYSTEM    = UTC
MEAN_ELEMENT_THEORY = SGP/SGP4

EPOCH          = 2026-03-17T06:16:09.550560
MEAN_MOTION    = 14.15011233
ECCENTRICITY   = .00161603
INCLINATION    = 70.9973
RA_OF_ASC_NODE = 282.0121
ARG_OF_PERICENTER = 289.5270
MEAN_ANOMALY   = 70.4107

EPHEMERIS_TYPE = 0
CLASSIFICATION_TYPE = U
NORAD_CAT_ID   = 20625
ELEMENT_SET_NO = 999
REV_AT_EPOCH   = 84946
BSTAR          = .47714246E-4
MEAN_MOTION_DOT = .45E-6
MEAN_MOTION_DDOT = 0

CCSDS_OMM_VERS = 2.0
CREATION_DATE  = 
ORIGINATOR     = 

OBJECT_NAME    = COSMOS 2084
OBJECT_ID      = 1990-055A
CENTER_NAME    = EARTH
REF_FRAME      = TEME
TIME_SYSTEM    = UTC
MEAN_ELEMENT_THEORY = SGP/SGP4

EPOCH          = 2026-03-17T00:39:30.572352
MEAN_MOTION    = 15.05692999
ECCENTRICITY   = .00158935
INCLINATION    = 62.7909
RA_OF_ASC_NODE = 310.5517
ARG_OF_PERICENTER = 192.0451
MEAN_ANOMALY   = 168.0271

EPHEMERIS_TYPE = 0
CLASSIFICATION_TYPE = U
NORAD_CAT_ID   = 20663
ELEMENT_SET_NO = 999
REV_AT_EPOCH   = 93742
BSTAR          = .14158889E-3
MEAN_MOTION_DOT = .1858E-4
MEAN_MOTION_DDOT = 0

CCSDS_OMM_VERS = 2.0
CREATION_DATE  = 
ORIGINATOR     = 

OBJECT_NAME    = SL-6 R/B(2)
OBJECT_ID      = 1990-055D
CENTER_NAME    = EARTH
REF_FRAME      = TEME
TIME_SYSTEM    = UTC
MEAN_ELEMENT_THEORY = SGP/SGP4

EPOCH          = 2026-03-17T03:40:31.031616
MEAN_MOTION    = 15.03632011
ECCENTRICITY   = .00259977
INCLINATION    = 62.7822
RA_OF_ASC_NODE = 228.4681
ARG_OF_PERICENTER = 348.8451
MEAN_ANOMALY   = 11.2068

EPHEMERIS_TYPE = 0
CLASSIFICATION_TYPE = U
NORAD_CAT_ID   = 20666
ELEMENT_SET_NO = 999
REV_AT_EPOCH   = 93931
BSTAR          = .14459831E-3
MEAN_MOTION_DOT = .1799E-4
MEAN_MOTION_DDOT = 0

CCSDS_OMM_VERS = 2.0
CREATION_DATE  = 
ORIGINATOR     = 

OBJECT_NAME    = SL-8 R/B
OBJECT_ID      = 1990-078B
CENTER_NAME    = EARTH
REF_FRAME      = TEME
TIME_SYSTEM    = UTC
MEAN_ELEMENT_THEORY = SGP/SGP4

EPOCH          = 2026-03-17T04:02:00.778848
MEAN_MOTION    = 14.89314803
ECCENTRICITY   = .03605805
INCLINATION    = 82.9000
RA_OF_ASC_NODE = 244.5828
ARG_OF_PERICENTER = 348.8252
MEAN_ANOMALY   = 10.5102

EPHEMERIS_TYPE = 0
CLASSIFICATION_TYPE = U
NORAD_CAT_ID   = 20775
ELEMENT_SET_NO = 999
REV_AT_EPOCH   = 81041
BSTAR          = .33737268E-3
MEAN_MOTION_DOT = .11437E-3
MEAN_MOTION_DDOT = 0

CCSDS_OMM_VERS = 2.0
CREATION_DATE  = 
ORIGINATOR     = 

OBJECT_NAME    = SL-8 R/B
OBJECT_ID      = 1991-006B
CENTER_NAME    = EARTH
REF_FRAME      = TEME
TIME_SYSTEM    = UTC
MEAN_ELEMENT_THEORY = SGP/SGP4

EPOCH          = 2026-03-17T04:17:55.048704
MEAN_MOTION    = 13.77495265
ECCENTRICITY   = .00226293
INCLINATION    = 82.9460
RA_OF_ASC_NODE = 164.4783
ARG_OF_PERICENTER = 17.9217
MEAN_ANOMALY   = 46.0235

EPHEMERIS_TYPE = 0
CLASSIFICATION_TYPE = U
NORAD_CAT_ID   = 21088
ELEMENT_SET_NO = 999
REV_AT_EPOCH   = 76510
BSTAR          = .5999528E-4
MEAN_MOTION_DOT = .75E-6
MEAN_MOTION_DDOT = 0

CCSDS_OMM_VERS = 2.0
CREATION_DATE  = 
ORIGINATOR     = 

OBJECT_NAME    = OKEAN-3
OBJECT_ID      = 1991-039A
CENTER_NAME    = EARTH
REF_FRAME      = TEME
TIME_SYSTEM    = UTC
MEAN_ELEMENT_THEORY = SGP/SGP4

EPOCH          = 2026-03-17T04:37:42.794688
MEAN_MOTION    = 15.04860503
ECCENTRICITY   = .0013201
INCLINATION    = 82.5199
RA_OF_ASC_NODE = 329.5757
ARG_OF_PERICENTER = 309.2448
MEAN_ANOMALY   = 50.7606

EPHEMERIS_TYPE = 0
CLASSIFICATION_TYPE = U
NORAD_CAT_ID   = 21397
ELEMENT_SET_NO = 999
REV_AT_EPOCH   = 86616
BSTAR          = .15976393E-3
MEAN_MOTION_DOT = .2289E-4
MEAN_MOTION_DDOT = 0

CCSDS_OMM_VERS = 2.0
CREATION_DATE  = 
ORIGINATOR     = 

OBJECT_NAME    = COSMOS 2151
OBJECT_ID      = 1991-042A
CENTER_NAME    = EARTH
REF_FRAME      = TEME
TIME_SYSTEM    = UTC
MEAN_ELEMENT_THEORY = SGP/SGP4

EPOCH          = 2026-03-17T06:53:59.002080
MEAN_MOTION    = 15.00136606
ECCENTRICITY   = .00135131
INCLINATION    = 82.4930
RA_OF_ASC_NODE = 76.3446
ARG_OF_PERICENTER = 40.3969
MEAN_ANOMALY   = 319.8256

EPHEMERIS_TYPE = 0
CLASSIFICATION_TYPE = U
NORAD_CAT_ID   = 21422
ELEMENT_SET_NO = 999
REV_AT_EPOCH   = 86433
BSTAR          = .15908178E-3
MEAN_MOTION_DOT = .2015E-4
MEAN_MOTION_DDOT = 0

CCSDS_OMM_VERS = 2.0
CREATION_DATE  = 
ORIGINATOR     = 

OBJECT_NAME    = SL-14 R/B
OBJECT_ID      = 1991-042B
CENTER_NAME    = EARTH
REF_FRAME      = TEME
TIME_SYSTEM    = UTC
MEAN_ELEMENT_THEORY = SGP/SGP4

EPOCH          = 2026-03-17T02:49:58.295712
MEAN_MOTION    = 14.81837504
ECCENTRICITY   = .00162395
INCLINATION    = 82.4937
RA_OF_ASC_NODE = 213.2168
ARG_OF_PERICENTER = 212.5659
MEAN_ANOMALY   = 147.4555

EPHEMERIS_TYPE = 0
CLASSIFICATION_TYPE = U
NORAD_CAT_ID   = 21423
ELEMENT_SET_NO = 999
REV_AT_EPOCH   = 85417
BSTAR          = .53927066E-4
MEAN_MOTION_DOT = .45E-5
MEAN_MOTION_DDOT = 0

